{
  "type": "FeatureCollection",
  "features": [
    {
      "type": "Feature",
      "properties": {
        "norad_id": 50032,
        "name": "COSMOS 1408 DEB",
        "group": "cosmos-1408-debris",
        "lat": 82.36591867658515,
        "lon": 162.88808166922357,
        "alt_km": 427.4080009917061,
        "timestamp": "2025-12-11T08:58:27.394026+00:00",
        "meta_object_name": "COSMOS 1408 DEB",
        "meta_object_id": "1982-092RU",
        "meta_epoch": "2025-12-11T05:28:13.738656",
        "meta_mean_motion": 15.45669243,
        "meta_eccentricity": 0.0015114,
        "meta_inclination": 82.564,
        "meta_ra_of_asc_node": 60.0581,
        "meta_arg_of_pericenter": 214.3913,
        "meta_mean_anomaly": 145.6359,
        "meta_ephemeris_type": 0,
        "meta_classification_type": "U",
        "meta_norad_cat_id": 50032,
        "meta_element_set_no": 999,
        "meta_rev_at_epoch": 22580,
        "meta_bstar": 0.00015919,
        "meta_mean_motion_dot": 7.748e-05,
        "meta_mean_motion_ddot": 0,
        "tle_line1": "1 50032U 82092RU  25345.22793679  .00007748  00000+0  15919-3 0  9998",
        "tle_line2": "2 50032  82.5640  60.0581 0015114 214.3913 145.6359 15.45669243225807"
      },
      "geometry": {
        "type": "Point",
        "coordinates": [
          162.88808166922357,
          82.36591867658515
        ]
      }
    },
    {
      "type": "Feature",
      "properties": {
        "norad_id": 50058,
        "name": "COSMOS 1408 DEB",
        "group": "cosmos-1408-debris",
        "lat": -23.591091781693606,
        "lon": -105.98150439955484,
        "alt_km": 383.9585163039055,
        "timestamp": "2025-12-11T08:58:27.394047+00:00",
        "meta_object_name": "COSMOS 1408 DEB",
        "meta_object_id": "1982-092SW",
        "meta_epoch": "2025-12-11T05:02:11.052096",
        "meta_mean_motion": 15.63951237,
        "meta_eccentricity": 0.0016423,
        "meta_inclination": 82.6126,
        "meta_ra_of_asc_node": 70.942,
        "meta_arg_of_pericenter": 103.1856,
        "meta_mean_anomaly": 257.1236,
        "meta_ephemeris_type": 0,
        "meta_classification_type": "U",
        "meta_norad_cat_id": 50058,
        "meta_element_set_no": 999,
        "meta_rev_at_epoch": 22780,
        "meta_bstar": 0.00045354,
        "meta_mean_motion_dot": 0.00043131,
        "meta_mean_motion_ddot": 0,
        "tle_line1": "1 50058U 82092SW  25345.20985014  .00043131  00000+0  45354-3 0  9992",
        "tle_line2": "2 50058  82.6126  70.9420 0016423 103.1856 257.1236 15.63951237227804"
      },
      "geometry": {
        "type": "Point",
        "coordinates": [
          -105.98150439955484,
          -23.591091781693606
        ]
      }
    },
    {
      "type": "Feature",
      "properties": {
        "norad_id": 50404,
        "name": "COSMOS 1408 DEB",
        "group": "cosmos-1408-debris",
        "lat": -20.815355629566465,
        "lon": 39.41803172603628,
        "alt_km": 411.9886304401907,
        "timestamp": "2025-12-11T08:58:27.394061+00:00",
        "meta_object_name": "COSMOS 1408 DEB",
        "meta_object_id": "1982-092ADS",
        "meta_epoch": "2025-12-11T01:44:16.771776",
        "meta_mean_motion": 15.13391943,
        "meta_eccentricity": 0.0172666,
        "meta_inclination": 82.2029,
        "meta_ra_of_asc_node": 216.7405,
        "meta_arg_of_pericenter": 204.633,
        "meta_mean_anomaly": 154.6586,
        "meta_ephemeris_type": 0,
        "meta_classification_type": "U",
        "meta_norad_cat_id": 50404,
        "meta_element_set_no": 999,
        "meta_rev_at_epoch": 21168,
        "meta_bstar": 0.0039306,
        "meta_mean_motion_dot": 0.00102745,
        "meta_mean_motion_ddot": 0,
        "tle_line1": "1 50404U 82092ADS 25345.07241634  .00102745  00000+0  39306-2 0  9991",
        "tle_line2": "2 50404  82.2029 216.7405 0172666 204.6330 154.6586 15.13391943211681"
      },
      "geometry": {
        "type": "Point",
        "coordinates": [
          39.41803172603628,
          -20.815355629566465
        ]
      }
    },
    {
      "type": "Feature",
      "properties": {
        "norad_id": 50621,
        "name": "COSMOS 1408 DEB",
        "group": "cosmos-1408-debris",
        "lat": -74.74932691871552,
        "lon": -75.79895162704143,
        "alt_km": 408.0655422717973,
        "timestamp": "2025-12-11T08:58:27.394073+00:00",
        "meta_object_name": "COSMOS 1408 DEB",
        "meta_object_id": "1982-092ALR",
        "meta_epoch": "2025-12-10T07:11:23.446752",
        "meta_mean_motion": 15.564597,
        "meta_eccentricity": 0.00288412,
        "meta_inclination": 82.5698,
        "meta_ra_of_asc_node": 76.7205,
        "meta_arg_of_pericenter": 161.3855,
        "meta_mean_anomaly": 198.8462,
        "meta_ephemeris_type": 0,
        "meta_classification_type": "U",
        "meta_norad_cat_id": 50621,
        "meta_element_set_no": 999,
        "meta_rev_at_epoch": 22212,
        "meta_bstar": 0.00053677944,
        "meta_mean_motion_dot": 0.00038838,
        "meta_mean_motion_ddot": 0,
        "tle_line1": "1 50621U 82092ALR 25344.29957693  .00038838  00000+0  53678-3 0  9994",
        "tle_line2": "2 50621  82.5698  76.7205 0028841 161.3855 198.8462 15.56459700222122"
      },
      "geometry": {
        "type": "Point",
        "coordinates": [
          -75.79895162704143,
          -74.74932691871552
        ]
      }
    }
  ]
}